319P/Catalina-McNaught,e,15.0897,111.3661,203.5945,3.570847,0.1460653,0.66586160,181.8274,11/28.0/2018,2000,g 15.0,4.0
# From MPC 95736
320P/McNaught,e,4.9066,295.9197,0.7401,3.095617,0.1809603,0.68536485,218.6222,11/28.0/2018,2000,g 20.5,4.0
# From MPEC 2017-L52
321P/SOHO,e,20.0245,165.0500,172.7145,2.422593,0.2613866,0.98102201,0.0000,01/17.2858/2020,2000,g 20.0,4.0
# From MPC 94284
321P/SOHO,e,20.1709,165.2027,172.5568,2.422574,0.2613897,0.98106596,0.0000,01/17.2582/2020,2000,g 20.0,4.0
# From MPC102103
322P/SOHO,e,11.5099,351.9791,56.4467,2.510561,0.2477695,0.97987387,0.0000,08/31.4498/2019,2000,g 19.0,4.0
# From MPC102957
323P/SOHO,e,4.6863,322.9856,354.3347,2.583073,0.2374101,0.98472301,0.0000,11/23.6096/2016,2000,g 20.0,4.0
# From MPC108598
324P/La Sagra,e,21.4238,270.6409,58.3123,3.093739,0.1811251,0.15425606,198.2876,11/28.0/2018,2000,g 13.0,4.0
# From MPC 95736
325P/Yang-Gao,e,16.7023,257.5810,343.6541,3.524350,0.1489655,0.59400995,178.7999,11/28.0/2018,2000,g 14.0,4.0
# From MPC103849
326P/Hill,e,2.4707,99.8130,278.6814,4.066524,0.1201902,0.31674440,136.2072,11/28.0/2018,2000,g 13.5,4.0
# From MPC 97499
327P/Van Ness,e,36.2188,173.9617,185.0422,3.564156,0.1464769,0.56219773,158.4976,11/28.0/2018,2000,g 16.0,4.0
# From MPC109148
328P/LONEOS-Tucker,e,17.6533,341.5997,30.5470,4.198838,0.1145540,0.55081958,122.6090,11/28.0/2018,2000,g 14.5,4.0
# From MPC101101
329P/LINEAR-Catalina,e,21.6576,87.6995,343.6058,5.196394,0.0832053,0.67763879,90.7923,11/28.0/2018,2000,g 13.5,4.0
# From MPC105243
330P/Catalina,e,15.6319,293.3870,188.5087,6.633154,0.0576931,0.55225992,47.2186,11/28.0/2018,2000,g 12.0,4.0
# From MPC110497
331P/Gibbs,e,9.7412,216.8013,182.3764,3.005534,0.1891567,0.04021843,234.1540,11/28.0/2018,2000,g 12.0,4.0
# From MPEC 2016-K18
332P/Ikeya-Murakami,e,9.3852,3.7902,152.4288,3.086496,0.1817630,0.48981050,179.2535,11/28.0/2018,2000,g 18.0,4.0
# From MPC 99822
332P-A/Ikeya-Murakami,e,9.3852,3.7903,152.4286,3.086496,0.1817630,0.48981030,179.2535,11/28.0/2018,2000,g 18.0,4.0
# From MPEC 2016-EI8
332P-B/Ikeya-Murakami,e,9.3805,3.8028,152.3711,3.082329,0.1821317,0.48970701,359.9699,03/17.0/2016,2000,g 19.0,4.0
# From MPC 99822
332P-C/Ikeya-Murakami,e,9.3842,3.7906,152.4200,3.086462,0.1817660,0.48981522,179.2647,11/28.0/2018,2000,g 16.5,4.0
# From MPEC 2016-ED0
332P-D/Ikeya-Murakami,e,9.3761,3.7923,152.4393,3.081138,0.1822373,0.48977814,359.9486,03/17.0/2016,2000,g 19.0,4.0
# From MPEC 2016-ED0
332P-E/Ikeya-Murakami,e,9.3774,3.8228,152.2825,3.079877,0.1823493,0.48922008,359.9889,03/17.0/2016,2000,g 21.0,4.0
# From MPEC 2016-ED0
332P-F/Ikeya-Murakami,e,9.5293,3.4757,152.8203,3.163214,0.1751908,0.49918860,359.8501,03/17.0/2016,2000,g 21.0,4.0
# From MPEC 2016-ED0
332P-G/Ikeya-Murakami,e,9.2523,3.6955,154.4000,3.050519,0.1849880,0.49200362,359.9006,03/19.0/2016,2000,g 19.0,4.0
# From MPC100285
332P-H/Ikeya-Murakami,e,9.3847,3.7903,152.4208,3.086646,0.1817497,0.48985094,179.2157,11/28.0/2018,2000,g 19.0,4.0
# From MPEC 2016-K18
332P-H/Ikeya-Murakami,e,9.3847,3.7903,152.4208,3.086646,0.1817497,0.48985094,179.2157,11/28.0/2018,2000,g 19.0,4.0
# From MPEC 2016-ED0
332P-I/Ikeya-Murakami,e,9.3791,3.8048,152.3297,3.081767,0.1821815,0.48955490,359.9360,03/17.0/2016,2000,g 20.5,2.0
# From MPEC 2016-EI8
332P-J/Ikeya-Murakami,e,9.4296,3.6729,152.7712,3.115165,0.1792596,0.49429435,359.8613,03/17.0/2016,2000,g 22.5,2.0
# From MPC104796
333P/LINEAR,e,131.8648,115.5766,26.1203,4.223003,0.1135722,0.73602573,109.9772,11/28.0/2018,2000,g 15.0,4.0
# From MPC111774
334P/NEAT,e,19.2490,92.0104,81.8005,6.631474,0.0577150,0.36834259,32.6297,11/28.0/2018,2000,g 10.5,4.0
# From MPC 10028
335P/Gibbs,e,7.2881,330.8443,162.2788,3.579240,0.1455519,0.54473030,162.8195,11/28.0/2018,2000,g 17.0,4.0
# From MPC105244
336P/McNaught,e,17.8357,298.2482,308.5803,5.025253,0.0874918,0.44618181,57.9809,11/28.0/2018,2000,g 13.5,4.0
# From MPC112394
337P/WISE,e,15.3700,106.0781,160.9264,3.288092,0.1653059,0.49689496,143.3961,11/28.0/2018,2000,g 17.0,4.0
# From MPC104796
338P/McNaught,e,25.3529,9.7978,4.4642,3.901244,0.1279085,0.41033782,94.1558,11/28.0/2018,2000,g 12.0,4.0
# From MPC101101
339P/Gibbs,e,5.7414,172.7718,27.4906,3.693529,0.1388487,0.63669860,118.9846,11/28.0/2018,2000,g 17.0,4.0
# From MPC102957
340P/Boattini,e,2.0789,291.7340,35.7668,4.252475,0.1123936,0.27997866,83.1098,11/28.0/2018,2000,g 13.0,4.0
# From MPC109148
341P/Gibbs,e,3.7933,30.0459,312.0927,4.297445,0.1106340,0.41415657,101.2584,11/28.0/2018,2000,g 12.5,4.0
# From MPC101101
342P/SOHO,e,12.9895,44.1578,57.2783,3.041951,0.1857701,0.98256924,0.0000,07/01.3373/2016,2000,g 20.0,4.0
# From MPC109148
343P/NEAT-LONEOS,e,5.5827,257.2481,137.4706,5.468526,0.0770724,0.58324952,51.5974,11/28.0/2018,2000,g 14.0,4.0
# From MPC109148
344P/Read,e,3.4901,273.1880,140.5469,4.872814,0.0916293,0.42124888,69.3729,11/28.0/2018,2000,g 13.0,4.0
# From MPC109148
345P/LINEAR,e,2.7250,154.5028,196.4237,4.043738,0.1212075,0.21964681,104.9174,11/28.0/2018,2000,g 12.0,4.0
# From MPC110086
346P/Catalina,e,22.1827,102.4867,336.0065,4.476675,0.1040569,0.50332754,67.6934,11/28.0/2018,2000,g 14.0,4.0
# From MPC108599
347P/PANSTARRS,e,11.7473,261.0499,98.3347,3.609842,0.1437049,0.38450649,116.0821,11/28.0/2018,2000,g 15.0,4.0
# From MPC104796
348P/PANSTARRS,e,17.5938,313.2769,134.4702,3.167724,0.1748168,0.30255669,155.0068,11/28.0/2018,2000,g 14.0,4.0
# From MPC112394
349P/Lemmon,e,5.4930,331.7630,255.9608,3.569927,0.1461218,0.30007387,66.9910,11/28.0/2018,2000,g 14.0,4.0
# From MPC111775
350P/McNaught,e,7.3692,65.5015,144.6773,4.121887,0.1177769,0.09116318,37.3387,11/28.0/2018,2000,g 14.0,4.0
# From MPC105244
351P/PANSTARRS,e,12.7882,283.4581,352.4960,4.435458,0.1055107,0.29621221,116.7441,11/28.0/2018,2000,g 12.5,4.0
# From MPC110086
352P/Skiff,e,21.0144,28.1528,309.0785,6.630667,0.0577256,0.61761745,30.2686,11/28.0/2018,2000,g 11.5,4.0
# From MPC108599
353P/McNaught,e,28.4151,121.5655,230.3969,4.171981,0.1156620,0.46934871,39.5615,11/28.0/2018,2000,g 14.5,4.0
# From MPC105545
354P/LINEAR,e,5.2553,320.1355,133.1603,2.289635,0.2844819,0.12544115,212.9666,11/28.0/2018,2000,g 15.5,4.0
# From MPC109594
355P/LINEAR-NEAT,e,11.0324,51.4591,336.3057,3.475248,0.1521337,0.50634972,62.5839,11/28.0/2018,2000,g 15.5,2.0
# From MPC109148
356P/WISE,e,9.6295,160.7989,226.1440,4.164143,0.1159887,0.35416212,40.1339,11/28.0/2018,2000,g 14.0,4.0
# From MPC112394
357P/Hill,e,6.3084,44.6077,1.5141,4.466184,0.1044237,0.43431915,19.1179,11/28.0/2018,2000,g 15.5,4.0
# From MPC106350
358P/PANSTARRS,e,11.0569,85.7199,299.8739,3.150671,0.1762380,0.23766464,40.6145,11/28.0/2018,2000,g 18.0,4.0
# From MPC110086
359P/LONEOS,e,10.2608,149.7842,200.1135,4.639262,0.0986349,0.32331444,45.8189,11/28.0/2018,2000,g 13.5,4.0
# From MPC108599
360P/WISE,e,24.0788,2.2224,354.1343,3.705045,0.1382018,0.49794562,64.4845,11/28.0/2018,2000,g 19.5,6.0
# From MPC112394
361P/Spacewatch,e,13.8821,203.2746,219.2034,4.946221,0.0895971,0.43790217,13.3092,11/28.0/2018,2000,g 12.0,4.0
# From MPEC 2017-V13
362P/,e,15.5686,192.6115,53.5348,3.964587,0.1248553,0.28053020,103.1382,11/28.0/2018,2000,g 12.9,2.0
# From MPC110086
363P/Lemmon,e,3.9746,169.9056,315.3253,3.406323,0.1567745,0.55726539,39.1958,11/28.0/2018,2000,g 17.5,4.0
# From MPC112394
364P/PANSTARRS,e,12.1551,46.2204,211.9358,2.877290,0.2019429,0.72269151,31.6318,11/28.0/2018,2000,g 17.0,2.0
# From MPC111775
365P/PANSTARRS,e,9.8390,87.4356,66.3811,3.185787,0.1733321,0.57360057,50.3039,11/28.0/2018,2000,g 17.0,4.0
# From MPC110086
366P/Spacewatch,e,8.8599,70.7569,153.2852,3.498879,0.1505950,0.34904576,19.4732,11/28.0/2018,2000,g 15.0,4.0
# From MPC112395
367P/Catalina,e,8.4643,58.7210,173.0244,3.507738,0.1500249,0.28117465,23.8551,11/28.0/2018,2000,g 17.5,2.0
# From MPC112395
368P/NEAT,e,15.4846,257.9774,118.8063,5.526076,0.0758715,0.62581166,5.6711,11/28.0/2018,2000,g 14.0,4.0
# From MPC112395
369P/Hill,e,10.3081,47.3206,13.2836,4.390750,0.1071263,0.55425797,4.6967,11/28.0/2018,2000,g 15.0,4.0
# From MPC112395
370P/NEAT,e,19.3971,55.1627,356.7709,6.445300,0.0602337,0.61440725,10.3316,11/28.0/2018,2000,g 13.0,4.0
# From MPC112395
371P/LINEAR-Skiff,e,17.3797,67.3348,308.4810,4.181325,0.1152745,0.47598803,6.2717,11/28.0/2018,2000,g 16.0,4.0
# From MPC111775
372P/McNaught,e,9.5109,325.8432,26.9421,4.497757,0.1033261,0.15176857,4.0897,11/28.0/2018,2000,g 13.5,4.0
# From MPC112395
373P/Rinner,e,13.7577,231.9584,221.2193,3.808122,0.1326288,0.39250406,342.4708,11/28.0/2018,2000,g 14.5,4.0
# From MPC112395
374P/Larson,e,10.7580,7.9357,51.5935,4.977812,0.0887455,0.46228925,356.1063,11/28.0/2018,2000,g 14.0,4.0
# From MPC112395
375P/Hill,e,17.3655,359.9644,119.4259,5.563217,0.0751130,0.65933559,358.2396,11/28.0/2018,2000,g 16.0,4.0
